CELESTIS-17 & SHERPA-FX1
1 47486U 21006CB  26068.64311433  .00007207  00000+0  24301-3 0  9993
2 47486  97.2397 112.1052 0006630 178.1385 181.9882 15.30994801284065
STARLINK-31527          
1 59018U 24036W   26068.31629496 -.00001743  00000+0 -46739-4 0  9999
2 59018  53.1588  80.0367 0001284  85.6358 274.4789 15.30193496115266
